{"fetched_at":"2026-07-21T07:07:16.188Z","source":"https://celestrak.org/NORAD/elements/gp.php?NAME=STRIX&FORMAT=JSON","constellation":"synspective","records":[{"OBJECT_NAME":"STRIX-1","OBJECT_ID":"2022-113A","EPOCH":"2026-07-20T23:03:38.159712","CLASSIFICATION_TYPE":"U","MEAN_MOTION":15.41171365,"ECCENTRICITY":0.0005614,"INCLINATION":97.447,"RA_OF_ASC_NODE":264.6178,"ARG_OF_PERICENTER":117.5781,"MEAN_ANOMALY":242.6037,"EPHEMERIS_TYPE":0,"NORAD_CAT_ID":53815,"ELEMENT_SET_NO":999,"REV_AT_EPOCH":21264,"BSTAR":0.00044059575,"MEAN_MOTION_DOT":0.00018214,"MEAN_MOTION_DDOT":0},{"OBJECT_NAME":"STRIX-3","OBJECT_ID":"2024-047A","EPOCH":"2026-07-20T21:24:18.649728","CLASSIFICATION_TYPE":"U","MEAN_MOTION":15.1986623,"ECCENTRICITY":0.00113741,"INCLINATION":97.6642,"RA_OF_ASC_NODE":178.08,"ARG_OF_PERICENTER":313.1047,"MEAN_ANOMALY":46.9235,"EPHEMERIS_TYPE":0,"NORAD_CAT_ID":59224,"ELEMENT_SET_NO":999,"REV_AT_EPOCH":12986,"BSTAR":0.00028711777,"MEAN_MOTION_DOT":0.00006099,"MEAN_MOTION_DDOT":0},{"OBJECT_NAME":"STRIX-4","OBJECT_ID":"2024-137A","EPOCH":"2026-07-20T21:41:40.130880","CLASSIFICATION_TYPE":"U","MEAN_MOTION":15.33443411,"ECCENTRICITY":0.00169369,"INCLINATION":43.015,"RA_OF_ASC_NODE":93.0456,"ARG_OF_PERICENTER":171.0658,"MEAN_ANOMALY":189.0501,"EPHEMERIS_TYPE":0,"NORAD_CAT_ID":60352,"ELEMENT_SET_NO":999,"REV_AT_EPOCH":10919,"BSTAR":0.00044279993,"MEAN_MOTION_DOT":0.00014427,"MEAN_MOTION_DDOT":0},{"OBJECT_NAME":"STRIX-2","OBJECT_ID":"2024-248A","EPOCH":"2026-07-20T22:56:47.793408","CLASSIFICATION_TYPE":"U","MEAN_MOTION":15.09227003,"ECCENTRICITY":0.00141684,"INCLINATION":97.6301,"RA_OF_ASC_NODE":157.4106,"ARG_OF_PERICENTER":214.1275,"MEAN_ANOMALY":145.9044,"EPHEMERIS_TYPE":0,"NORAD_CAT_ID":62406,"ELEMENT_SET_NO":999,"REV_AT_EPOCH":8668,"BSTAR":0.00026106442,"MEAN_MOTION_DOT":0.00004097,"MEAN_MOTION_DDOT":0},{"OBJECT_NAME":"STRIX-5","OBJECT_ID":"2025-229A","EPOCH":"2026-07-20T00:42:57.147840","CLASSIFICATION_TYPE":"U","MEAN_MOTION":15.04609968,"ECCENTRICITY":0.003807,"INCLINATION":41.9279,"RA_OF_ASC_NODE":105.251,"ARG_OF_PERICENTER":268.1482,"MEAN_ANOMALY":91.4984,"EPHEMERIS_TYPE":0,"NORAD_CAT_ID":65971,"ELEMENT_SET_NO":999,"REV_AT_EPOCH":4192,"BSTAR":0.00014997015,"MEAN_MOTION_DOT":0.00001978,"MEAN_MOTION_DDOT":0},{"OBJECT_NAME":"STRIX-6","OBJECT_ID":"2026-056A","EPOCH":"2026-07-20T16:44:24.251424","CLASSIFICATION_TYPE":"U","MEAN_MOTION":15.00341125,"ECCENTRICITY":0.00166226,"INCLINATION":50.2823,"RA_OF_ASC_NODE":191.3647,"ARG_OF_PERICENTER":12.2993,"MEAN_ANOMALY":347.8359,"EPHEMERIS_TYPE":0,"NORAD_CAT_ID":68291,"ELEMENT_SET_NO":999,"REV_AT_EPOCH":1830,"BSTAR":0.00010548563,"MEAN_MOTION_DOT":0.00001073,"MEAN_MOTION_DDOT":0},{"OBJECT_NAME":"STRIX-7","OBJECT_ID":"2026-112A","EPOCH":"2026-07-20T21:40:09.168096","CLASSIFICATION_TYPE":"U","MEAN_MOTION":15.01633466,"ECCENTRICITY":0.00252213,"INCLINATION":44.9085,"RA_OF_ASC_NODE":15.3401,"ARG_OF_PERICENTER":238.6269,"MEAN_ANOMALY":121.2135,"EPHEMERIS_TYPE":0,"NORAD_CAT_ID":69177,"ELEMENT_SET_NO":999,"REV_AT_EPOCH":894,"BSTAR":0.00020525651,"MEAN_MOTION_DOT":0.00002489,"MEAN_MOTION_DDOT":0},{"OBJECT_NAME":"STRIX-8","OBJECT_ID":"2026-146A","EPOCH":"2026-07-20T17:30:02.238048","CLASSIFICATION_TYPE":"U","MEAN_MOTION":15.04462447,"ECCENTRICITY":0.0006489,"INCLINATION":41.9905,"RA_OF_ASC_NODE":342.4366,"ARG_OF_PERICENTER":63.3029,"MEAN_ANOMALY":296.8462,"EPHEMERIS_TYPE":0,"NORAD_CAT_ID":69701,"ELEMENT_SET_NO":999,"REV_AT_EPOCH":361,"BSTAR":0.00019990768,"MEAN_MOTION_DOT":0.00002654,"MEAN_MOTION_DDOT":0}]}
