STRIX-1                 
1 53815U 22113A   26201.96085833  .00018214  00000+0  44060-3 0  9996
2 53815  97.4470 264.6178 0005614 117.5781 242.6037 15.41171365212648
STRIX-3                 
1 59224U 24047A   26201.89188252  .00006099  00000+0  28712-3 0  9999
2 59224  97.6642 178.0800 0011374 313.1047  46.9235 15.19866230129863
STRIX-4                 
1 60352U 24137A   26201.90393670  .00014427  00000+0  44280-3 0  9999
2 60352  43.0150  93.0456 0016936 171.0658 189.0501 15.33443411109194
STRIX-2                 
1 62406U 24248A   26201.95610872  .00004097  00000+0  26106-3 0  9994
2 62406  97.6301 157.4106 0014168 214.1275 145.9044 15.09227003 86686
STRIX-5                 
1 65971U 25229A   26201.02982810  .00001978  00000+0  14997-3 0  9996
2 65971  41.9279 105.2510 0038070 268.1482  91.4984 15.04609968 41924
STRIX-6                 
1 68291U 26056A   26201.69750291  .00001073  00000+0  10549-3 0  9997
2 68291  50.2823 191.3647 0016622  12.2993 347.8359 15.00341125 18305
STRIX-7                 
1 69177U 26112A   26201.90288389  .00002489  00000+0  20526-3 0  9990
2 69177  44.9085  15.3401 0025221 238.6269 121.2135 15.01633466  8945
STRIX-8                 
1 69701U 26146A   26201.72919257  .00002654  00000+0  19991-3 0  9993
2 69701  41.9905 342.4366 0006489  63.3029 296.8462 15.04462447  3615
